CCSDS_OMM_VERS = 2.0
CREATION_DATE  = 
ORIGINATOR     = 

OBJECT_NAME    = STARLINK-36569
OBJECT_ID      = 2026-014X
CENTER_NAME    = EARTH
REF_FRAME      = TEME
TIME_SYSTEM    = UTC
MEAN_ELEMENT_THEORY = SGP/SGP4

EPOCH          = 2026-02-15T14:00:01.999872
MEAN_MOTION    = 15.75157317
ECCENTRICITY   = .0001492
INCLINATION    = 97.2854
RA_OF_ASC_NODE = 290.4599
ARG_OF_PERICENTER = 77.4366
MEAN_ANOMALY   = 2.9403

EPHEMERIS_TYPE = 0
CLASSIFICATION_TYPE = U
NORAD_CAT_ID   = 67553
ELEMENT_SET_NO = 999
REV_AT_EPOCH   = 513
BSTAR          = .16062583E-3
MEAN_MOTION_DOT = .23862E-3
MEAN_MOTION_DDOT = 0

CCSDS_OMM_VERS = 2.0
CREATION_DATE  = 
ORIGINATOR     = 

OBJECT_NAME    = STARLINK-36395
OBJECT_ID      = 2026-014Y
CENTER_NAME    = EARTH
REF_FRAME      = TEME
TIME_SYSTEM    = UTC
MEAN_ELEMENT_THEORY = SGP/SGP4

EPOCH          = 2026-02-15T05:00:17.298720
MEAN_MOTION    = 15.75239845
ECCENTRICITY   = .0002061
INCLINATION    = 97.2851
RA_OF_ASC_NODE = 290.0152
ARG_OF_PERICENTER = 79.3872
MEAN_ANOMALY   = 280.7625

EPHEMERIS_TYPE = 0
CLASSIFICATION_TYPE = U
NORAD_CAT_ID   = 67554
ELEMENT_SET_NO = 999
REV_AT_EPOCH   = 502
BSTAR          = .19919E-2
MEAN_MOTION_DOT = .308628E-2
MEAN_MOTION_DDOT = 0

CCSDS_OMM_VERS = 2.0
CREATION_DATE  = 
ORIGINATOR     = 

OBJECT_NAME    = STARLINK-36559
OBJECT_ID      = 2026-014Z
CENTER_NAME    = EARTH
REF_FRAME      = TEME
TIME_SYSTEM    = UTC
MEAN_ELEMENT_THEORY = SGP/SGP4

EPOCH          = 2026-02-15T05:02:17.306592
MEAN_MOTION    = 15.75264949
ECCENTRICITY   = .0001548
INCLINATION    = 97.2852
RA_OF_ASC_NODE = 290.0133
ARG_OF_PERICENTER = 72.8788
MEAN_ANOMALY   = 287.2647

EPHEMERIS_TYPE = 0
CLASSIFICATION_TYPE = U
NORAD_CAT_ID   = 67555
ELEMENT_SET_NO = 999
REV_AT_EPOCH   = 502
BSTAR          = .17822E-2
MEAN_MOTION_DOT = .275336E-2
MEAN_MOTION_DDOT = 0

CCSDS_OMM_VERS = 2.0
CREATION_DATE  = 
ORIGINATOR     = 

OBJECT_NAME    = MR-2
OBJECT_ID      = 2026-015A
CENTER_NAME    = EARTH
REF_FRAME      = TEME
TIME_SYSTEM    = UTC
MEAN_ELEMENT_THEORY = SGP/SGP4

EPOCH          = 2026-02-15T14:17:19.629312
MEAN_MOTION    = 13.52686335
ECCENTRICITY   = .00050936
INCLINATION    = 88.9968
RA_OF_ASC_NODE = 280.9089
ARG_OF_PERICENTER = 78.3614
MEAN_ANOMALY   = 281.8110

EPHEMERIS_TYPE = 0
CLASSIFICATION_TYPE = U
NORAD_CAT_ID   = 67556
ELEMENT_SET_NO = 999
REV_AT_EPOCH   = 327
BSTAR          = .84703992E-4
MEAN_MOTION_DOT = .68E-6
MEAN_MOTION_DDOT = 0

CCSDS_OMM_VERS = 2.0
CREATION_DATE  = 
ORIGINATOR     = 

OBJECT_NAME    = MR-1
OBJECT_ID      = 2026-015B
CENTER_NAME    = EARTH
REF_FRAME      = TEME
TIME_SYSTEM    = UTC
MEAN_ELEMENT_THEORY = SGP/SGP4

EPOCH          = 2026-02-15T14:17:57.666048
MEAN_MOTION    = 13.52661496
ECCENTRICITY   = .00051779
INCLINATION    = 88.9969
RA_OF_ASC_NODE = 280.9093
ARG_OF_PERICENTER = 77.2085
MEAN_ANOMALY   = 282.9645

EPHEMERIS_TYPE = 0
CLASSIFICATION_TYPE = U
NORAD_CAT_ID   = 67557
ELEMENT_SET_NO = 999
REV_AT_EPOCH   = 327
BSTAR          = .10275206E-3
MEAN_MOTION_DOT = .8E-6
MEAN_MOTION_DDOT = 0

CCSDS_OMM_VERS = 2.0
CREATION_DATE  = 
ORIGINATOR     = 

OBJECT_NAME    = ELECTRON R/B
OBJECT_ID      = 2026-015C
CENTER_NAME    = EARTH
REF_FRAME      = TEME
TIME_SYSTEM    = UTC
MEAN_ELEMENT_THEORY = SGP/SGP4

EPOCH          = 2026-02-15T10:38:24.194976
MEAN_MOTION    = 15.54253284
ECCENTRICITY   = .03582477
INCLINATION    = 88.9804
RA_OF_ASC_NODE = 280.1892
ARG_OF_PERICENTER = 180.8687
MEAN_ANOMALY   = 179.2008

EPHEMERIS_TYPE = 0
CLASSIFICATION_TYPE = U
NORAD_CAT_ID   = 67558
ELEMENT_SET_NO = 999
REV_AT_EPOCH   = 362
BSTAR          = .16868804E-2
MEAN_MOTION_DOT = .3401232E-1
MEAN_MOTION_DDOT = -.1244715E-5

CCSDS_OMM_VERS = 2.0
CREATION_DATE  = 
ORIGINATOR     = 

OBJECT_NAME    = ELECTRON KICK STAGE R/B
OBJECT_ID      = 2026-015D
CENTER_NAME    = EARTH
REF_FRAME      = TEME
TIME_SYSTEM    = UTC
MEAN_ELEMENT_THEORY = SGP/SGP4

EPOCH          = 2026-02-15T13:34:54.773472
MEAN_MOTION    = 14.68279961
ECCENTRICITY   = .05282293
INCLINATION    = 89.0508
RA_OF_ASC_NODE = 280.5227
ARG_OF_PERICENTER = 250.7705
MEAN_ANOMALY   = 103.5662

EPHEMERIS_TYPE = 0
CLASSIFICATION_TYPE = U
NORAD_CAT_ID   = 67559
ELEMENT_SET_NO = 999
REV_AT_EPOCH   = 354
BSTAR          = .96167204E-3
MEAN_MOTION_DOT = .57138E-3
MEAN_MOTION_DDOT = .57385E-7

CCSDS_OMM_VERS = 2.0
CREATION_DATE  = 
ORIGINATOR     = 

OBJECT_NAME    = STARLINK-36426
OBJECT_ID      = 2026-014AA
CENTER_NAME    = EARTH
REF_FRAME      = TEME
TIME_SYSTEM    = UTC
MEAN_ELEMENT_THEORY = SGP/SGP4

EPOCH          = 2026-02-15T14:00:01.999872
MEAN_MOTION    = 15.75089666
ECCENTRICITY   = .00017009
INCLINATION    = 97.2845
RA_OF_ASC_NODE = 290.4778
ARG_OF_PERICENTER = 98.7598
MEAN_ANOMALY   = 15.6000

EPHEMERIS_TYPE = 0
CLASSIFICATION_TYPE = U
NORAD_CAT_ID   = 67560
ELEMENT_SET_NO = 999
REV_AT_EPOCH   = 396
BSTAR          = .12102405E-2
MEAN_MOTION_DOT = .183522E-2
MEAN_MOTION_DDOT = 0

CCSDS_OMM_VERS = 2.0
CREATION_DATE  = 
ORIGINATOR     = 

OBJECT_NAME    = STARLINK-36621
OBJECT_ID      = 2026-016A
CENTER_NAME    = EARTH
REF_FRAME      = TEME
TIME_SYSTEM    = UTC
MEAN_ELEMENT_THEORY = SGP/SGP4

EPOCH          = 2026-02-15T10:17:02.262624
MEAN_MOTION    = 15.75244885
ECCENTRICITY   = .00014057
INCLINATION    = 97.2832
RA_OF_ASC_NODE = 105.7355
ARG_OF_PERICENTER = 89.9585
MEAN_ANOMALY   = 270.1841

EPHEMERIS_TYPE = 0
CLASSIFICATION_TYPE = U
NORAD_CAT_ID   = 67561
ELEMENT_SET_NO = 999
REV_AT_EPOCH   = 329
BSTAR          = .95621028E-3
MEAN_MOTION_DOT = .145291E-2
MEAN_MOTION_DDOT = 0

CCSDS_OMM_VERS = 2.0
CREATION_DATE  = 
ORIGINATOR     = 

OBJECT_NAME    = STARLINK-36398
OBJECT_ID      = 2026-016B
CENTER_NAME    = EARTH
REF_FRAME      = TEME
TIME_SYSTEM    = UTC
MEAN_ELEMENT_THEORY = SGP/SGP4

EPOCH          = 2026-02-15T10:27:42.294816
MEAN_MOTION    = 15.75244968
ECCENTRICITY   = .00013184
INCLINATION    = 97.2836
RA_OF_ASC_NODE = 105.7236
ARG_OF_PERICENTER = 127.0987
MEAN_ANOMALY   = 233.0399

EPHEMERIS_TYPE = 0
CLASSIFICATION_TYPE = U
NORAD_CAT_ID   = 67562
ELEMENT_SET_NO = 999
REV_AT_EPOCH   = 329
BSTAR          = .79049154E-3
MEAN_MOTION_DOT = .119728E-2
MEAN_MOTION_DDOT = 0

CCSDS_OMM_VERS = 2.0
CREATION_DATE  = 
ORIGINATOR     = 

OBJECT_NAME    = STARLINK-36403
OBJECT_ID      = 2026-016C
CENTER_NAME    = EARTH
REF_FRAME      = TEME
TIME_SYSTEM    = UTC
MEAN_ELEMENT_THEORY = SGP/SGP4

EPOCH          = 2026-02-15T12:51:03.023424
MEAN_MOTION    = 15.80917841
ECCENTRICITY   = .00015128
INCLINATION    = 97.2838
RA_OF_ASC_NODE = 105.8967
ARG_OF_PERICENTER = 133.3171
MEAN_ANOMALY   = 226.8223

EPHEMERIS_TYPE = 0
CLASSIFICATION_TYPE = U
NORAD_CAT_ID   = 67563
ELEMENT_SET_NO = 999
REV_AT_EPOCH   = 331
BSTAR          = .93970753E-3
MEAN_MOTION_DOT = .184572E-2
MEAN_MOTION_DDOT = 0

CCSDS_OMM_VERS = 2.0
CREATION_DATE  = 
ORIGINATOR     = 

OBJECT_NAME    = STARLINK-36593
OBJECT_ID      = 2026-016D
CENTER_NAME    = EARTH
REF_FRAME      = TEME
TIME_SYSTEM    = UTC
MEAN_ELEMENT_THEORY = SGP/SGP4

EPOCH          = 2026-02-15T12:49:17.472864
MEAN_MOTION    = 15.80905598
ECCENTRICITY   = .00013938
INCLINATION    = 97.2841
RA_OF_ASC_NODE = 105.8982
ARG_OF_PERICENTER = 77.0087
MEAN_ANOMALY   = 283.1337

EPHEMERIS_TYPE = 0
CLASSIFICATION_TYPE = U
NORAD_CAT_ID   = 67564
ELEMENT_SET_NO = 999
REV_AT_EPOCH   = 331
BSTAR          = .93381092E-3
MEAN_MOTION_DOT = .183283E-2
MEAN_MOTION_DDOT = 0

