STARLINK-36569          
1 67553U 26014X   26046.58335648  .00023862  00000+0  16063-3 0  9998
2 67553  97.2854 290.4599 0001492  77.4366   2.9403 15.75157317  5139
STARLINK-36395          
1 67554U 26014Y   26046.20853355  .00308628  00000+0  19919-2 0  9996
2 67554  97.2851 290.0152 0002061  79.3872 280.7625 15.75239845  5021
STARLINK-36559          
1 67555U 26014Z   26046.20992253  .00275336  00000+0  17822-2 0  9998
2 67555  97.2852 290.0133 0001548  72.8788 287.2647 15.75264949  5024
MR-2                    
1 67556U 26015A   26046.59536608  .00000068  00000+0  84704-4 0  9993
2 67556  88.9968 280.9089 0005093  78.3614 281.8110 13.52686335  3276
MR-1                    
1 67557U 26015B   26046.59580632  .00000080  00000+0  10275-3 0  9995
2 67557  88.9969 280.9093 0005177  77.2085 282.9645 13.52661496  3272
ELECTRON R/B            
1 67558U 26015C   26046.44333559  .03401232 -12447-5  16869-2 0  9990
2 67558  88.9804 280.1892 0358247 180.8687 179.2008 15.54253284  3624
ELECTRON KICK STAGE R/B 
1 67559U 26015D   26046.56591173  .00057138  57385-7  96167-3 0  9992
2 67559  89.0508 280.5227 0528229 250.7705 103.5662 14.68279961  3542
STARLINK-36426          
1 67560U 26014AA  26046.58335648  .00183522  00000+0  12102-2 0  9995
2 67560  97.2845 290.4778 0001700  98.7598  15.6000 15.75089666  3965
STARLINK-36621          
1 67561U 26016A   26046.42849841  .00145291  00000+0  95621-3 0  9995
2 67561  97.2832 105.7355 0001405  89.9585 270.1841 15.75244885  3294
STARLINK-36398          
1 67562U 26016B   26046.43590619  .00119728  00000+0  79049-3 0  9995
2 67562  97.2836 105.7236 0001318 127.0987 233.0399 15.75244968  3298
STARLINK-36403          
1 67563U 26016C   26046.53545166  .00184572  00000+0  93971-3 0  9993
2 67563  97.2838 105.8967 0001512 133.3171 226.8223 15.80917841  3316
STARLINK-36593          
1 67564U 26016D   26046.53423001  .00183283  00000+0  93381-3 0  9990
2 67564  97.2841 105.8982 0001393  77.0087 283.1337 15.80905598  3313
